1 53923U 22119AP  22282.83334491 -.00078815  00000-0 -56024-3 0  9999
2 53923  53.2189 179.3880 0001088  87.3385 133.4752 15.73290720  2776